{"type": "FeatureCollection", "features": [ {"type": "Feature", "properties": {"norad_id": 66625, "name": "STARLINK-35929", "group": "last-30-days", "lat": -26.245797773616932, "lon": 100.53487203137412, "alt_km": 450.43415107172314, "timestamp": "2025-12-26T10:30:48.973117+00:00", "meta": {"OBJECT_NAME": "STARLINK-35929", "OBJECT_ID": "2025-271J", "EPOCH": "2025-12-25T17:31:19.322400", "MEAN_MOTION": 15.39642972, "ECCENTRICITY": 0.00012607, "INCLINATION": 53.1604, "RA_OF_ASC_NODE": 125.5658, "ARG_OF_PERICENTER": 46.6548, "MEAN_ANOMALY": 313.4562, "EPHEMERIS_TYPE": 0, "CLASSIFICATION_TYPE": "U", "NORAD_CAT_ID": 66625, "ELEMENT_SET_NO": 999, "REV_AT_EPOCH": 621, "BSTAR": 0.0011395573, "MEAN_MOTION_DOT": 0.00045489, "MEAN_MOTION_DDOT": 0}, "tle": {"line1": "1 66625U 25271J   25359.73008475  .00045489  00000+0  11396-2 0  9991", "line2": "2 66625  53.1604 125.5658 0001260  46.6548 313.4562 15.39642972  6211"}}, "geometry": {"type": "Point", "coordinates": [100.53487203137412, -26.245797773616932]}}, {"type": "Feature", "properties": {"norad_id": 66626, "name": "STARLINK-35902", "group": "last-30-days", "lat": -48.443159438319476, "lon": 0.12322251750628352, "alt_km": 452.8202217602884, "timestamp": "2025-12-26T10:30:48.973127+00:00", "meta": {"OBJECT_NAME": "STARLINK-35902", "OBJECT_ID": "2025-271K", "EPOCH": "2025-12-25T17:51:22.930560", "MEAN_MOTION": 15.39632018, "ECCENTRICITY": 0.00015641, "INCLINATION": 53.1624, "RA_OF_ASC_NODE": 125.6545, "ARG_OF_PERICENTER": 52.1551, "MEAN_ANOMALY": 307.9595, "EPHEMERIS_TYPE": 0, "CLASSIFICATION_TYPE": "U", "NORAD_CAT_ID": 66626, "ELEMENT_SET_NO": 999, "REV_AT_EPOCH": 621, "BSTAR": 0.00062689035, "MEAN_MOTION_DOT": 0.00024767, "MEAN_MOTION_DDOT": 0}, "tle": {"line1": "1 66626U 25271K   25359.74401540  .00024767  00000+0  62689-3 0  9991", "line2": "2 66626  53.1624 125.6545 0001564  52.1551 307.9595 15.39632018  6217"}}, "geometry": {"type": "Point", "coordinates": [0.12322251750628352, -48.443159438319476]}}, {"type": "Feature", "properties": {"norad_id": 66627, "name": "STARLINK-35904", "group": "last-30-days", "lat": -43.4753442296689, "lon": 76.9778180251358, "alt_km": 452.0472173944745, "timestamp": "2025-12-26T10:30:48.973138+00:00", "meta": {"OBJECT_NAME": "STARLINK-35904", "OBJECT_ID": "2025-271L", "EPOCH": "2025-12-25T17:38:00.621888", "MEAN_MOTION": 15.3963173, "ECCENTRICITY": 0.00010582, "INCLINATION": 53.1598, "RA_OF_ASC_NODE": 125.5969, "ARG_OF_PERICENTER": 72.2559, "MEAN_ANOMALY": 287.8562, "EPHEMERIS_TYPE": 0, "CLASSIFICATION_TYPE": "U", "NORAD_CAT_ID": 66627, "ELEMENT_SET_NO": 999, "REV_AT_EPOCH": 617, "BSTAR": 0.0010231914, "MEAN_MOTION_DOT": 0.00040762, "MEAN_MOTION_DDOT": 0}, "tle": {"line1": "1 66627U 25271L   25359.73472942  .00040762  00000+0  10232-2 0  9994", "line2": "2 66627  53.1598 125.5969 0001058  72.2559 287.8562 15.39631730  6171"}}, "geometry": {"type": "Point", "coordinates": [76.9778180251358, -43.4753442296689]}}, {"type": "Feature", "properties": {"norad_id": 66628, "name": "STARLINK-35862", "group": "last-30-days", "lat": 49.237510502551146, "lon": -177.55429645315024, "alt_km": 439.935679541637, "timestamp": "2025-12-26T10:30:48.973148+00:00", "meta": {"OBJECT_NAME": "STARLINK-35862", "OBJECT_ID": "2025-271M", "EPOCH": "2025-12-26T04:00:01.998720", "MEAN_MOTION": 15.3956856, "ECCENTRICITY": 0.0001154, "INCLINATION": 53.1598, "RA_OF_ASC_NODE": 123.2996, "ARG_OF_PERICENTER": 91.1324, "MEAN_ANOMALY": 275.1437, "EPHEMERIS_TYPE": 0, "CLASSIFICATION_TYPE": "U", "NORAD_CAT_ID": 66628, "ELEMENT_SET_NO": 999, "REV_AT_EPOCH": 596, "BSTAR": 0.0016697, "MEAN_MOTION_DOT": 0.00066859, "MEAN_MOTION_DDOT": 0}, "tle": {"line1": "1 66628U 25271M   25360.16668980  .00066859  00000+0  16697-2 0  9999", "line2": "2 66628  53.1598 123.2996 0001154  91.1324 275.1437 15.39568560  5961"}}, "geometry": {"type": "Point", "coordinates": [-177.55429645315024, 49.237510502551146]}}, {"type": "Feature", "properties": {"norad_id": 66629, "name": "STARLINK-35956", "group": "last-30-days", "lat": -0.27368634768540084, "lon": 121.26210828835589, "alt_km": 393.02140682431855, "timestamp": "2025-12-26T10:30:48.973159+00:00", "meta": {"OBJECT_NAME": "STARLINK-35956", "OBJECT_ID": "2025-271N", "EPOCH": "2025-12-26T04:21:02.701728", "MEAN_MOTION": 15.56348189, "ECCENTRICITY": 0.0009437, "INCLINATION": 53.1717, "RA_OF_ASC_NODE": 122.7083, "ARG_OF_PERICENTER": 29.3734, "MEAN_ANOMALY": 330.7807, "EPHEMERIS_TYPE": 0, "CLASSIFICATION_TYPE": "U", "NORAD_CAT_ID": 66629, "ELEMENT_SET_NO": 999, "REV_AT_EPOCH": 115, "BSTAR": 0.0061435, "MEAN_MOTION_DOT": 0.00467462, "MEAN_MOTION_DDOT": 0}, "tle": {"line1": "1 66629U 25271N   25360.18128127  .00467462  00000+0  61435-2 0  9991", "line2": "2 66629  53.1717 122.7083 0009437  29.3734 330.7807 15.56348189  1154"}}, "geometry": {"type": "Point", "coordinates": [121.26210828835589, -0.27368634768540084]}}, {"type": "Feature", "properties": {"norad_id": 66630, "name": "STARLINK-35949", "group": "last-30-days", "lat": 52.8381561049092, "lon": -139.55115002500372, "alt_km": 439.7636270136136, "timestamp": "2025-12-26T10:30:48.973168+00:00", "meta": {"OBJECT_NAME": "STARLINK-35949", "OBJECT_ID": "2025-271P", "EPOCH": "2025-12-26T04:00:01.998720", "MEAN_MOTION": 15.39588776, "ECCENTRICITY": 5.11e-05, "INCLINATION": 53.1602, "RA_OF_ASC_NODE": 123.2507, "ARG_OF_PERICENTER": 110.9259, "MEAN_ANOMALY": 279.1945, "EPHEMERIS_TYPE": 0, "CLASSIFICATION_TYPE": "U", "NORAD_CAT_ID": 66630, "ELEMENT_SET_NO": 999, "REV_AT_EPOCH": 591, "BSTAR": 0.0019945, "MEAN_MOTION_DOT": 0.00080137, "MEAN_MOTION_DDOT": 0}, "tle": {"line1": "1 66630U 25271P   25360.16668980  .00080137  00000+0  19945-2 0  9996", "line2": "2 66630  53.1602 123.2507 0000511 110.9259 279.1945 15.39588776  5915"}}, "geometry": {"type": "Point", "coordinates": [-139.55115002500372, 52.8381561049092]}}, {"type": "Feature", "properties": {"norad_id": 66631, "name": "STARLINK-35965", "group": "last-30-days", "lat": 52.5751976981855, "lon": -136.47072752779948, "alt_km": 439.77352174771386, "timestamp": "2025-12-26T10:30:48.973181+00:00", "meta": {"OBJECT_NAME": "STARLINK-35965", "OBJECT_ID": "2025-271Q", "EPOCH": "2025-12-26T04:00:01.998720", "MEAN_MOTION": 15.39578885, "ECCENTRICITY": 5.84e-05, "INCLINATION": 53.1599, "RA_OF_ASC_NODE": 123.2475, "ARG_OF_PERICENTER": 113.5019, "MEAN_ANOMALY": 278.5107, "EPHEMERIS_TYPE": 0, "CLASSIFICATION_TYPE": "U", "NORAD_CAT_ID": 66631, "ELEMENT_SET_NO": 999, "REV_AT_EPOCH": 601, "BSTAR": 0.0021238, "MEAN_MOTION_DOT": 0.00085392, "MEAN_MOTION_DDOT": 0}, "tle": {"line1": "1 66631U 25271Q   25360.16668980  .00085392  00000+0  21238-2 0  9993", "line2": "2 66631  53.1599 123.2475 0000584 113.5019 278.5107 15.39578885  6013"}}, "geometry": {"type": "Point", "coordinates": [-136.47072752779948, 52.5751976981855]}}, {"type": "Feature", "properties": {"norad_id": 66632, "name": "STARLINK-35973", "group": "last-30-days", "lat": -14.178504878812488, "lon": -46.600937302729754, "alt_km": 450.38572728497184, "timestamp": "2025-12-26T10:30:48.973192+00:00", "meta": {"OBJECT_NAME": "STARLINK-35973", "OBJECT_ID": "2025-271R", "EPOCH": "2025-12-25T19:38:14.121600", "MEAN_MOTION": 15.39623686, "ECCENTRICITY": 0.00014116, "INCLINATION": 53.1597, "RA_OF_ASC_NODE": 125.4024, "ARG_OF_PERICENTER": 47.8203, "MEAN_ANOMALY": 312.2922, "EPHEMERIS_TYPE": 0, "CLASSIFICATION_TYPE": "U", "NORAD_CAT_ID": 66632, "ELEMENT_SET_NO": 999, "REV_AT_EPOCH": 618, "BSTAR": 0.0013165644, "MEAN_MOTION_DOT": 0.00052633, "MEAN_MOTION_DDOT": 0}, "tle": {"line1": "1 66632U 25271R   25359.81821900  .00052633  00000+0  13166-2 0  9990", "line2": "2 66632  53.1597 125.4024 0001411  47.8203 312.2922 15.39623686  6189"}}, "geometry": {"type": "Point", "coordinates": [-46.600937302729754, -14.178504878812488]}}, {"type": "Feature", "properties": {"norad_id": 66633, "name": "STARLINK-35948", "group": "last-30-days", "lat": -15.667315850278476, "lon": -45.3873291222761, "alt_km": 449.8233795588776, "timestamp": "2025-12-26T10:30:48.973206+00:00", "meta": {"OBJECT_NAME": "STARLINK-35948", "OBJECT_ID": "2025-271S", "EPOCH": "2025-12-25T14:57:19.488672", "MEAN_MOTION": 15.39627398, "ECCENTRICITY": 9.43e-05, "INCLINATION": 53.1609, "RA_OF_ASC_NODE": 126.3158, "ARG_OF_PERICENTER": 93.7563, "MEAN_ANOMALY": 266.3549, "EPHEMERIS_TYPE": 0, "CLASSIFICATION_TYPE": "U", "NORAD_CAT_ID": 66633, "ELEMENT_SET_NO": 999, "REV_AT_EPOCH": 619, "BSTAR": 0.0011483, "MEAN_MOTION_DOT": 0.0004582, "MEAN_MOTION_DDOT": 0}, "tle": {"line1": "1 66633U 25271S   25359.62314223  .00045820  00000+0  11483-2 0  9995", "line2": "2 66633  53.1609 126.3158 0000943  93.7563 266.3549 15.39627398  6199"}}, "geometry": {"type": "Point", "coordinates": [-45.3873291222761, -15.667315850278476]}}, {"type": "Feature", "properties": {"norad_id": 66634, "name": "STARLINK-35967", "group": "last-30-days", "lat": -34.76486138890141, "lon": -26.21817242841318, "alt_km": 451.70146341654527, "timestamp": "2025-12-26T10:30:48.973217+00:00", "meta": {"OBJECT_NAME": "STARLINK-35967", "OBJECT_ID": "2025-271T", "EPOCH": "2025-12-25T16:24:07.011072", "MEAN_MOTION": 15.39630052, "ECCENTRICITY": 0.00012375, "INCLINATION": 53.1615, "RA_OF_ASC_NODE": 125.9827, "ARG_OF_PERICENTER": 86.7677, "MEAN_ANOMALY": 273.347, "EPHEMERIS_TYPE": 0, "CLASSIFICATION_TYPE": "U", "NORAD_CAT_ID": 66634, "ELEMENT_SET_NO": 999, "REV_AT_EPOCH": 616, "BSTAR": 0.0012795364, "MEAN_MOTION_DOT": 0.00051142, "MEAN_MOTION_DDOT": 0}, "tle": {"line1": "1 66634U 25271T   25359.68341448  .00051142  00000+0  12795-2 0  9992", "line2": "2 66634  53.1615 125.9827 0001237  86.7677 273.3470 15.39630052  6169"}}, "geometry": {"type": "Point", "coordinates": [-26.21817242841318, -34.76486138890141]}}]}